LEMUR-2-FINNIAN         
1 66782U 25276DX  26186.15278903  .00003846  00000+0  30931-3 0  9998
2 66782  97.5318 256.5831 0008467  37.3542 322.8270 15.00539446 22693
LEMUR-2-STARLIGHT       
1 66783U 25276DY  26186.19164213  .00012012  00000+0  98592-3 0  9993
2 66783  97.5224 256.2150 0014650  76.2923 283.9931 14.99267123 32898
LEMUR-2-TARTIFLETTE     
1 66784U 25276DZ  26186.18996294  .00010228  00000+0  84074-3 0  9992
2 66784  97.5225 256.2213 0013673  83.9718 276.3063 14.99263341 32891
LEMUR-2-VUKASIN         
1 66785U 25276EA  26186.16841347  .00002695  00000+0  21869-3 0  9991
2 66785  97.5256 256.5396 0004613  82.2970 277.8778 15.00457120 32844
LEMUR-2-HOTSPUR-TOM     
1 66786U 25276EB  26186.18373493  .00011028  00000+0  90814-3 0  9992
2 66786  97.5218 256.1926 0014039  75.2792 284.9986 14.99168806 32820
LEMUR-2-MYRA            
1 66787U 25276EC  26186.20054277  .00011861  00000+0  94145-3 0  9998
2 66787  97.5207 256.4925 0018376  84.5712 275.7608 15.00509352 32911
LEMUR-2 FIKRETDENGIZ    
1 67363U 26004A   26186.42037595  .00006796  00000+0  73669-3 0  9996
2 67363  97.8025 184.6996 0010595  82.8816 277.3605 14.88470342 25990
TWILIGHT-1 OBJECT B     
1 67364U 26004B   26186.45285300  .00002746  00000+0  30662-3 0  9996
2 67364  97.8067 184.7380 0010190  73.6401 286.5936 14.87771894 26001
LEMUR-2-MARIO-SOUSA     
1 67365U 26004C   26186.40159935  .00007517  00000+0  81018-3 0  9998
2 67365  97.7995 184.6763 0010183  84.1684 276.0694 14.88673083 26004
LEMUR-2-SONNENBLUME     
1 67367U 26004E   26186.46994234  .00004267  00000+0  46555-3 0  9991
2 67367  97.7990 184.7207 0009724  85.1458 275.0869 14.88418945 26012
LEMUR-2-WOBLER          
1 67368U 26004F   26185.99027367  .00005805  00000+0  62762-3 0  9990
2 67368  97.8040 184.3888 0009920  77.6792 282.5535 14.88647220 25940
LEMUR-2-GRAM-E-SUE      
1 67370U 26004H   26186.45225722  .00003688  00000+0  40192-3 0  9990
2 67370  97.7978 184.7198 0008848  87.2790 272.9439 14.88560747 26016
LEMUR-2-KATIE           
1 67387U 26004AA  26185.94995835  .00008665  00000+0  89935-3 0  9998
2 67387  97.8042 184.7424 0004342  57.3934 302.7702 14.90186442 25958
LEMUR-2-HCS-BAZUS       
1 67388U 26004AB  26185.94847037  .00004259  00000+0  44478-3 0  9997
2 67388  97.8028 184.7206 0003734  55.9351 304.2221 14.90225147 25951
